ONEWEB-0716             
1 55177U 23004AP  24161.93295876 -.00000024  00000+0 -94803-4 0  9992
2 55177  87.9162 152.6436 0002194  91.7494 268.3889 13.17651136 70495
ONEWEB-0717             
1 55178U 23004AQ  24161.91556855  .00000064  00000+0  13224-3 0  9997
2 55178  87.9161 152.6115 0001150  71.6884 288.4372 13.17647597 70542
ONEWEB-0719             
1 55179U 23004AR  24161.92664985  .00000047  00000+0  88852-4 0  9994
2 55179  87.9160 152.5956 0002051  96.8062 263.3303 13.17648088 70498
ONEWEB-0530             
1 55796U 23029A   24161.67386098  .00000134  00000+0  29744-3 0  9995
2 55796  87.9221  61.2146 0001334  84.0972 276.0313 13.20771228 63794
ONEWEB-0534             
1 55797U 23029B   24161.96425935  .00000109  00000+0  23540-3 0  9992
2 55797  87.9220  61.1640 0002008  85.2629 274.8734 13.20771269 63836
ONEWEB-0556             
1 55798U 23029C   24161.97056966  .00000151  00000+0  34006-3 0  9994
2 55798  87.9222  61.1560 0001912 108.4120 251.7221 13.20770720 63833
ONEWEB-0562             
1 55799U 23029D   24161.95793840  .00000110  00000+0  23922-3 0  9992
2 55799  87.9219  61.1491 0001217 111.9598 248.1665 13.20770285 63837
ONEWEB-0563             
1 55800U 23029E   24161.95162445  .00000071  00000+0  14173-3 0  9990
2 55800  87.9220  61.1655 0001928  89.6678 270.4677 13.20770261 63827
